{"fetched_at":"2026-07-11T09:23:59.140Z","source":"https://celestrak.org/NORAD/elements/gp.php?GROUP=planet&FORMAT=JSON","constellation":"skysat","records":[{"OBJECT_NAME":"SKYSAT-A","OBJECT_ID":"2013-066C","EPOCH":"2026-07-11T01:34:31.492128","CLASSIFICATION_TYPE":"U","MEAN_MOTION":15.13102101,"ECCENTRICITY":0.0020122,"INCLINATION":97.3805,"RA_OF_ASC_NODE":240.7017,"ARG_OF_PERICENTER":228.3568,"MEAN_ANOMALY":131.5941,"EPHEMERIS_TYPE":0,"NORAD_CAT_ID":39418,"ELEMENT_SET_NO":999,"REV_AT_EPOCH":69209,"BSTAR":0.000096068,"MEAN_MOTION_DOT":0.00001644,"MEAN_MOTION_DDOT":0},{"OBJECT_NAME":"SKYSAT-B","OBJECT_ID":"2014-037D","EPOCH":"2026-07-09T10:47:30.495264","CLASSIFICATION_TYPE":"U","MEAN_MOTION":14.88083411,"ECCENTRICITY":0.00051123,"INCLINATION":98.385,"RA_OF_ASC_NODE":150.6859,"ARG_OF_PERICENTER":191.8576,"MEAN_ANOMALY":168.252,"EPHEMERIS_TYPE":0,"NORAD_CAT_ID":40072,"ELEMENT_SET_NO":999,"REV_AT_EPOCH":64927,"BSTAR":0.00010518908,"MEAN_MOTION_DOT":0.00000906,"MEAN_MOTION_DDOT":0},{"OBJECT_NAME":"SKYSAT-C1","OBJECT_ID":"2016-040C","EPOCH":"2026-07-11T01:15:19.214208","CLASSIFICATION_TYPE":"U","MEAN_MOTION":15.36701959,"ECCENTRICITY":0.0000717,"INCLINATION":96.9558,"RA_OF_ASC_NODE":222.4825,"ARG_OF_PERICENTER":359.4665,"MEAN_ANOMALY":0.6579,"EPHEMERIS_TYPE":0,"NORAD_CAT_ID":41601,"ELEMENT_SET_NO":999,"REV_AT_EPOCH":56153,"BSTAR":0.00015359,"MEAN_MOTION_DOT":0.00005431,"MEAN_MOTION_DDOT":0},{"OBJECT_NAME":"SKYSAT-C4","OBJECT_ID":"2016-058B","EPOCH":"2026-07-10T20:20:10.698720","CLASSIFICATION_TYPE":"U","MEAN_MOTION":15.49338612,"ECCENTRICITY":0.0003311,"INCLINATION":96.917,"RA_OF_ASC_NODE":212.6388,"ARG_OF_PERICENTER":124.5912,"MEAN_ANOMALY":235.5653,"EPHEMERIS_TYPE":0,"NORAD_CAT_ID":41771,"ELEMENT_SET_NO":999,"REV_AT_EPOCH":54913,"BSTAR":0.00020937,"MEAN_MOTION_DOT":0.00011381,"MEAN_MOTION_DDOT":0},{"OBJECT_NAME":"SKYSAT-C5","OBJECT_ID":"2016-058C","EPOCH":"2026-07-09T22:14:08.690208","CLASSIFICATION_TYPE":"U","MEAN_MOTION":15.3395516,"ECCENTRICITY":0.00020348,"INCLINATION":97.0465,"RA_OF_ASC_NODE":230.5527,"ARG_OF_PERICENTER":135.3938,"MEAN_ANOMALY":224.747,"EPHEMERIS_TYPE":0,"NORAD_CAT_ID":41772,"ELEMENT_SET_NO":999,"REV_AT_EPOCH":54723,"BSTAR":0.00022859962,"MEAN_MOTION_DOT":0.00007436,"MEAN_MOTION_DDOT":0},{"OBJECT_NAME":"SKYSAT-C2","OBJECT_ID":"2016-058D","EPOCH":"2026-07-10T11:40:06.062592","CLASSIFICATION_TYPE":"U","MEAN_MOTION":15.4260758,"ECCENTRICITY":0.00020347,"INCLINATION":97.0164,"RA_OF_ASC_NODE":212.7103,"ARG_OF_PERICENTER":13.3625,"MEAN_ANOMALY":346.7677,"EPHEMERIS_TYPE":0,"NORAD_CAT_ID":41773,"ELEMENT_SET_NO":999,"REV_AT_EPOCH":54864,"BSTAR":0.0002024409,"MEAN_MOTION_DOT":0.00008725,"MEAN_MOTION_DDOT":0},{"OBJECT_NAME":"SKYSAT-C3","OBJECT_ID":"2016-058E","EPOCH":"2026-07-10T00:24:41.926752","CLASSIFICATION_TYPE":"U","MEAN_MOTION":15.53540793,"ECCENTRICITY":0.00021894,"INCLINATION":96.9003,"RA_OF_ASC_NODE":220.9981,"ARG_OF_PERICENTER":133.5121,"MEAN_ANOMALY":226.6316,"EPHEMERIS_TYPE":0,"NORAD_CAT_ID":41774,"ELEMENT_SET_NO":999,"REV_AT_EPOCH":54965,"BSTAR":0.000284373,"MEAN_MOTION_DOT":0.00018005,"MEAN_MOTION_DDOT":0},{"OBJECT_NAME":"SKYSAT-C11","OBJECT_ID":"2017-068A","EPOCH":"2026-07-09T15:48:01.789056","CLASSIFICATION_TYPE":"U","MEAN_MOTION":15.59105762,"ECCENTRICITY":0.00008121,"INCLINATION":97.4368,"RA_OF_ASC_NODE":340.4901,"ARG_OF_PERICENTER":166.0165,"MEAN_ANOMALY":194.1114,"EPHEMERIS_TYPE":0,"NORAD_CAT_ID":42987,"ELEMENT_SET_NO":999,"REV_AT_EPOCH":48674,"BSTAR":0.00027644744,"MEAN_MOTION_DOT":0.00021499,"MEAN_MOTION_DDOT":0},{"OBJECT_NAME":"SKYSAT-C10","OBJECT_ID":"2017-068B","EPOCH":"2026-07-09T15:42:35.169408","CLASSIFICATION_TYPE":"U","MEAN_MOTION":15.35042344,"ECCENTRICITY":0.00013609,"INCLINATION":97.4523,"RA_OF_ASC_NODE":327.7297,"ARG_OF_PERICENTER":109.0541,"MEAN_ANOMALY":251.085,"EPHEMERIS_TYPE":0,"NORAD_CAT_ID":42988,"ELEMENT_SET_NO":999,"REV_AT_EPOCH":48580,"BSTAR":0.00023222205,"MEAN_MOTION_DOT":0.00007814,"MEAN_MOTION_DDOT":0},{"OBJECT_NAME":"SKYSAT-C9","OBJECT_ID":"2017-068C","EPOCH":"2026-07-11T04:28:53.357088","CLASSIFICATION_TYPE":"U","MEAN_MOTION":15.42149851,"ECCENTRICITY":0.0008945,"INCLINATION":97.4444,"RA_OF_ASC_NODE":330.445,"ARG_OF_PERICENTER":57.4451,"MEAN_ANOMALY":302.7659,"EPHEMERIS_TYPE":0,"NORAD_CAT_ID":42989,"ELEMENT_SET_NO":999,"REV_AT_EPOCH":48645,"BSTAR":0.00019496,"MEAN_MOTION_DOT":0.00008274,"MEAN_MOTION_DDOT":0},{"OBJECT_NAME":"SKYSAT-C8","OBJECT_ID":"2017-068D","EPOCH":"2026-07-09T15:45:21.893760","CLASSIFICATION_TYPE":"U","MEAN_MOTION":15.37418486,"ECCENTRICITY":0.00012242,"INCLINATION":97.4543,"RA_OF_ASC_NODE":327.6181,"ARG_OF_PERICENTER":99.9689,"MEAN_ANOMALY":260.1694,"EPHEMERIS_TYPE":0,"NORAD_CAT_ID":42990,"ELEMENT_SET_NO":999,"REV_AT_EPOCH":48576,"BSTAR":0.00020711554,"MEAN_MOTION_DOT":0.00007514,"MEAN_MOTION_DDOT":0},{"OBJECT_NAME":"SKYSAT-C7","OBJECT_ID":"2017-068E","EPOCH":"2026-07-11T01:59:09.300192","CLASSIFICATION_TYPE":"U","MEAN_MOTION":15.37390204,"ECCENTRICITY":0.0006075,"INCLINATION":97.4553,"RA_OF_ASC_NODE":330.0557,"ARG_OF_PERICENTER":35.1418,"MEAN_ANOMALY":325.0226,"EPHEMERIS_TYPE":0,"NORAD_CAT_ID":42991,"ELEMENT_SET_NO":999,"REV_AT_EPOCH":48604,"BSTAR":0.00017785,"MEAN_MOTION_DOT":0.00006437,"MEAN_MOTION_DDOT":0},{"OBJECT_NAME":"SKYSAT-C6","OBJECT_ID":"2017-068F","EPOCH":"2026-07-11T03:34:40.321056","CLASSIFICATION_TYPE":"U","MEAN_MOTION":15.3412475,"ECCENTRICITY":0.0005167,"INCLINATION":97.4591,"RA_OF_ASC_NODE":329.9947,"ARG_OF_PERICENTER":99.1349,"MEAN_ANOMALY":261.0479,"EPHEMERIS_TYPE":0,"NORAD_CAT_ID":42992,"ELEMENT_SET_NO":999,"REV_AT_EPOCH":48599,"BSTAR":0.00017135,"MEAN_MOTION_DOT":0.00005579,"MEAN_MOTION_DDOT":0},{"OBJECT_NAME":"SKYSAT-C12","OBJECT_ID":"2018-099AR","EPOCH":"2026-07-11T04:27:54.675072","CLASSIFICATION_TYPE":"U","MEAN_MOTION":15.49693402,"ECCENTRICITY":0.0005616,"INCLINATION":96.9259,"RA_OF_ASC_NODE":214.4679,"ARG_OF_PERICENTER":79.1051,"MEAN_ANOMALY":281.0833,"EPHEMERIS_TYPE":0,"NORAD_CAT_ID":43797,"ELEMENT_SET_NO":999,"REV_AT_EPOCH":42557,"BSTAR":0.00020638,"MEAN_MOTION_DOT":0.00011363,"MEAN_MOTION_DDOT":0}]}
